{
    "links": {
        "self": "http://www.neowsapp.com/rest/v1/neo/3991658?api_key=iIulBulltgU6a56xZRHN4H3l9WmuAYTsLGpBGhQ2"
    },
    "id": "3991658",
    "neo_reference_id": "3991658",
    "name": "(2020 DE1)",
    "designation": "2020 DE1",
    "nasa_jpl_url": "http://ssd.jpl.nasa.gov/sbdb.cgi?sstr=3991658",
    "absolute_magnitude_h": 27.771,
    "estimated_diameter": {
        "kilometers": {
            "estimated_diameter_min": 0.0074191641,
            "estimated_diameter_max": 0.0165897552
        },
        "meters": {
            "estimated_diameter_min": 7.4191640918,
            "estimated_diameter_max": 16.5897552456
        },
        "miles": {
            "estimated_diameter_min": 0.0046100534,
            "estimated_diameter_max": 0.0103083928
        },
        "feet": {
            "estimated_diameter_min": 24.3410903191,
            "estimated_diameter_max": 54.4283326
        }
    },
    "is_potentially_hazardous_asteroid": false,
    "close_approach_data": [
        {
            "close_approach_date": "1908-02-13",
            "close_approach_date_full": "1908-Feb-13 07:51",
            "epoch_date_close_approach": -1952870940000,
            "relative_velocity": {
                "kilometers_per_second": "5.0703221698",
                "kilometers_per_hour": "18253.1598111673",
                "miles_per_hour": "11341.8036615556"
            },
            "miss_distance": {
                "astronomical": "0.0384141876",
                "lunar": "14.9431189764",
                "kilometers": "5746680.642740412",
                "miles": "3570821.7701932056"
            },
            "orbiting_body": "Earth"
        },
        {
            "close_approach_date": "2020-02-15",
            "close_approach_date_full": "2020-Feb-15 04:19",
            "epoch_date_close_approach": 1581740340000,
            "relative_velocity": {
                "kilometers_per_second": "5.1434325993",
                "kilometers_per_hour": "18516.3573573323",
                "miles_per_hour": "11505.3443812824"
            },
            "miss_distance": {
                "astronomical": "0.0374010061",
                "lunar": "14.5489913729",
                "kilometers": "5595110.848417007",
                "miles": "3476640.6672364166"
            },
            "orbiting_body": "Earth"
        }
    ],
    "orbital_data": {
        "orbit_id": "2",
        "orbit_determination_date": "2020-02-20 04:54:01",
        "first_observation_date": "2020-02-17",
        "last_observation_date": "2020-02-20",
        "data_arc_in_days": 3,
        "observations_used": 16,
        "orbit_uncertainty": "8",
        "minimum_orbit_intersection": ".0372863",
        "jupiter_tisserand_invariant": "4.650",
        "epoch_osculation": "2458897.5",
        "eccentricity": ".2884392049082813",
        "semi_major_axis": "1.42342703571987",
        "inclination": "6.636467998737161",
        "ascending_node_longitude": "152.6261954170868",
        "orbital_period": "620.2992303679199",
        "perihelion_distance": "1.012854873291879",
        "perihelion_argument": "336.6554919019827",
        "aphelion_distance": "1.833999198147861",
        "perihelion_time": "2458879.873266258006",
        "mean_anomaly": "10.22994038434328",
        "mean_motion": ".5803650599186979",
        "equinox": "J2000",
        "orbit_class": {
            "orbit_class_type": "APO",
            "orbit_class_description": "Near-Earth asteroid orbits which cross the Earth’s orbit similar to that of 1862 Apollo",
            "orbit_class_range": "a (semi-major axis) > 1.0 AU; q (perihelion) < 1.017 AU"
        }
    },
    "is_sentry_object": false
}